CCSDS_OMM_VERS = 2.0
CREATION_DATE  = 
ORIGINATOR     = 

OBJECT_NAME    = COSMOS 2550
OBJECT_ID      = 2021-056A
CENTER_NAME    = EARTH
REF_FRAME      = TEME
TIME_SYSTEM    = UTC
MEAN_ELEMENT_THEORY = SGP/SGP4

EPOCH          = 2025-11-04T17:02:27.392928
MEAN_MOTION    = 15.33828882
ECCENTRICITY   = .0008402
INCLINATION    = 67.1437
RA_OF_ASC_NODE = 59.0203
ARG_OF_PERICENTER = 269.6433
MEAN_ANOMALY   = 90.3759

EPHEMERIS_TYPE = 0
CLASSIFICATION_TYPE = U
NORAD_CAT_ID   = 48865
ELEMENT_SET_NO = 999
REV_AT_EPOCH   = 24429
BSTAR          = .18764E-3
MEAN_MOTION_DOT = .5986E-4
MEAN_MOTION_DDOT = 0

CCSDS_OMM_VERS = 2.0
CREATION_DATE  = 
ORIGINATOR     = 

OBJECT_NAME    = CZ-2C R/B
OBJECT_ID      = 2022-058K
CENTER_NAME    = EARTH
REF_FRAME      = TEME
TIME_SYSTEM    = UTC
MEAN_ELEMENT_THEORY = SGP/SGP4

EPOCH          = 2025-11-04T12:11:14.266464
MEAN_MOTION    = 15.45814402
ECCENTRICITY   = .00499568
INCLINATION    = 50.1916
RA_OF_ASC_NODE = 238.1355
ARG_OF_PERICENTER = 39.2256
MEAN_ANOMALY   = 321.2314

EPHEMERIS_TYPE = 0
CLASSIFICATION_TYPE = U
NORAD_CAT_ID   = 52794
ELEMENT_SET_NO = 999
REV_AT_EPOCH   = 19071
BSTAR          = .54475442E-3
MEAN_MOTION_DOT = .27858E-3
MEAN_MOTION_DDOT = 0

CCSDS_OMM_VERS = 2.0
CREATION_DATE  = 
ORIGINATOR     = 

OBJECT_NAME    = GSLV R/B
OBJECT_ID      = 2022-138AN
CENTER_NAME    = EARTH
REF_FRAME      = TEME
TIME_SYSTEM    = UTC
MEAN_ELEMENT_THEORY = SGP/SGP4

EPOCH          = 2025-11-04T15:51:51.891264
MEAN_MOTION    = 14.95809651
ECCENTRICITY   = .00191461
INCLINATION    = 87.3860
RA_OF_ASC_NODE = 208.2159
ARG_OF_PERICENTER = 243.5654
MEAN_ANOMALY   = 116.3613

EPHEMERIS_TYPE = 0
CLASSIFICATION_TYPE = U
NORAD_CAT_ID   = 54149
ELEMENT_SET_NO = 999
REV_AT_EPOCH   = 16523
BSTAR          = .32502451E-3
MEAN_MOTION_DOT = .3666E-4
MEAN_MOTION_DDOT = 0

CCSDS_OMM_VERS = 2.0
CREATION_DATE  = 
ORIGINATOR     = 

OBJECT_NAME    = XRISM
OBJECT_ID      = 2023-137A
CENTER_NAME    = EARTH
REF_FRAME      = TEME
TIME_SYSTEM    = UTC
MEAN_ELEMENT_THEORY = SGP/SGP4

EPOCH          = 2025-11-04T11:54:26.229888
MEAN_MOTION    = 15.09735163
ECCENTRICITY   = .00082392
INCLINATION    = 31.0033
RA_OF_ASC_NODE = 12.3541
ARG_OF_PERICENTER = 218.6121
MEAN_ANOMALY   = 141.3929

EPHEMERIS_TYPE = 0
CLASSIFICATION_TYPE = U
NORAD_CAT_ID   = 57800
ELEMENT_SET_NO = 999
REV_AT_EPOCH   = 11884
BSTAR          = .41101272E-3
MEAN_MOTION_DOT = .6894E-4
MEAN_MOTION_DDOT = 0

CCSDS_OMM_VERS = 2.0
CREATION_DATE  = 
ORIGINATOR     = 

OBJECT_NAME    = ACS3
OBJECT_ID      = 2024-077B
CENTER_NAME    = EARTH
REF_FRAME      = TEME
TIME_SYSTEM    = UTC
MEAN_ELEMENT_THEORY = SGP/SGP4

EPOCH          = 2025-11-04T10:39:30.125952
MEAN_MOTION    = 13.83064348
ECCENTRICITY   = .0040287
INCLINATION    = 97.3299
RA_OF_ASC_NODE = 272.5327
ARG_OF_PERICENTER = 30.4116
MEAN_ANOMALY   = 329.9369

EPHEMERIS_TYPE = 0
CLASSIFICATION_TYPE = U
NORAD_CAT_ID   = 59588
ELEMENT_SET_NO = 999
REV_AT_EPOCH   = 7684
BSTAR          = .10776614E-1
MEAN_MOTION_DOT = .11848E-3
MEAN_MOTION_DDOT = 0

