COSMOS 2550             
1 48865U 21056A   25308.71003927  .00005986  00000+0  18764-3 0  9998
2 48865  67.1437  59.0203 0008402 269.6433  90.3759 15.33828882244299
CZ-2C R/B               
1 52794U 22058K   25308.50780401  .00027858  00000+0  54475-3 0  9994
2 52794  50.1916 238.1355 0049956  39.2256 321.2314 15.45814402190716
GSLV R/B                
1 54149U 22138AN  25308.66101726  .00003666  00000+0  32502-3 0  9991
2 54149  87.3860 208.2159 0019146 243.5654 116.3613 14.95809651165230
XRISM                   
1 57800U 23137A   25308.49613692  .00006894  00000+0  41101-3 0  9990
2 57800  31.0033  12.3541 0008239 218.6121 141.3929 15.09735163118842
ACS3                    
1 59588U 24077B   25308.44409868  .00011848  00000+0  10777-1 0  9990
2 59588  97.3299 272.5327 0040287  30.4116 329.9369 13.83064348 76846
